[{"OBJECT_NAME":"YAOGAN-33 02","OBJECT_ID":"2022-106A","EPOCH":"2026-03-10T00:11:39.197184","MEAN_MOTION":14.58686207,"ECCENTRICITY":0.00031698,"INCLINATION":98.185,"RA_OF_ASC_NODE":78.3458,"ARG_OF_PERICENTER":101.2556,"MEAN_ANOMALY":258.9,"EPHEMERIS_TYPE":0,"CLASSIFICATION_TYPE":"U","NORAD_CAT_ID":53698,"ELEMENT_SET_NO":999,"REV_AT_EPOCH":18726,"BSTAR":6.2152918e-5,"MEAN_MOTION_DOT":2.44e-6,"MEAN_MOTION_DDOT":0},{"OBJECT_NAME":"OBJECT E","OBJECT_ID":"2019-079E","EPOCH":"2026-03-09T23:32:16.414656","MEAN_MOTION":14.8535198,"ECCENTRICITY":0.01693653,"INCLINATION":97.6675,"RA_OF_ASC_NODE":77.1091,"ARG_OF_PERICENTER":315.2861,"MEAN_ANOMALY":43.4802,"EPHEMERIS_TYPE":0,"CLASSIFICATION_TYPE":"U","NORAD_CAT_ID":45915,"ELEMENT_SET_NO":999,"REV_AT_EPOCH":30492,"BSTAR":0.00041459103,"MEAN_MOTION_DOT":4.556e-5,"MEAN_MOTION_DDOT":0}]
